{
  "type": "FeatureCollection",
  "features": [
    {
      "type": "Feature",
      "properties": {
        "norad_id": 41434,
        "name": "BEIDOU-2 IGSO-6 (C13)",
        "group": "beidou",
        "lat": -4.7102594545107515,
        "lon": -137.27557451708626,
        "alt_km": 35616.8459364961,
        "timestamp": "2025-12-07T03:52:32.761788+00:00",
        "meta_object_name": "BEIDOU-2 IGSO-6 (C13)",
        "meta_object_id": "2016-021A",
        "meta_epoch": "2025-12-01T15:57:35.287200",
        "meta_mean_motion": 1.00256562,
        "meta_eccentricity": 0.00591323,
        "meta_inclination": 59.9483,
        "meta_ra_of_asc_node": 40.0119,
        "meta_arg_of_pericenter": 231.2834,
        "meta_mean_anomaly": 130.8807,
        "meta_ephemeris_type": 0,
        "meta_classification_type": "U",
        "meta_norad_cat_id": 41434,
        "meta_element_set_no": 999,
        "meta_rev_at_epoch": 3550,
        "meta_bstar": 0,
        "meta_mean_motion_dot": -1.55e-06,
        "meta_mean_motion_ddot": 0,
        "tle_line1": "1 41434U 16021A   25335.66499175 -.00000155  00000+0  00000+0 0  9991",
        "tle_line2": "2 41434  59.9483  40.0119 0059132 231.2834 130.8807  1.00256562 35501"
      },
      "geometry": {
        "type": "Point",
        "coordinates": [
          -137.27557451708626,
          -4.7102594545107515
        ]
      }
    },
    {
      "type": "Feature",
      "properties": {
        "norad_id": 41586,
        "name": "BEIDOU-2 G7 (C03)",
        "group": "beidou",
        "lat": 0.06404920383887788,
        "lon": -115.1941489385267,
        "alt_km": 35805.12803800831,
        "timestamp": "2025-12-07T03:52:32.761801+00:00",
        "meta_object_name": "BEIDOU-2 G7 (C03)",
        "meta_object_id": "2016-037A",
        "meta_epoch": "2025-12-06T12:28:41.400768",
        "meta_mean_motion": 1.00270086,
        "meta_eccentricity": 0.00043751,
        "meta_inclination": 1.7412,
        "meta_ra_of_asc_node": 67.7316,
        "meta_arg_of_pericenter": 1.5262,
        "meta_mean_anomaly": 303.9569,
        "meta_ephemeris_type": 0,
        "meta_classification_type": "U",
        "meta_norad_cat_id": 41586,
        "meta_element_set_no": 999,
        "meta_rev_at_epoch": 495,
        "meta_bstar": 0,
        "meta_mean_motion_dot": -3.47e-06,
        "meta_mean_motion_ddot": 0,
        "tle_line1": "1 41586U 16037A   25340.51992362 -.00000347  00000+0  00000+0 0  9995",
        "tle_line2": "2 41586   1.7412  67.7316 0004375   1.5262 303.9569  1.00270086  4953"
      },
      "geometry": {
        "type": "Point",
        "coordinates": [
          -115.1941489385267,
          0.06404920383887788
        ]
      }
    },
    {
      "type": "Feature",
      "properties": {
        "norad_id": 43001,
        "name": "BEIDOU-3 M1 (C19)",
        "group": "beidou",
        "lat": 5.7204470135492365,
        "lon": -114.3679213859273,
        "alt_km": 21543.959511192286,
        "timestamp": "2025-12-07T03:52:32.761821+00:00",
        "meta_object_name": "BEIDOU-3 M1 (C19)",
        "meta_object_id": "2017-069A",
        "meta_epoch": "2025-12-06T08:47:12.602112",
        "meta_mean_motion": 1.86230764,
        "meta_eccentricity": 0.00089894,
        "meta_inclination": 56.5217,
        "meta_ra_of_asc_node": 69.4444,
        "meta_arg_of_pericenter": 303.7678,
        "meta_mean_anomaly": 56.1608,
        "meta_ephemeris_type": 0,
        "meta_classification_type": "U",
        "meta_norad_cat_id": 43001,
        "meta_element_set_no": 999,
        "meta_rev_at_epoch": 5501,
        "meta_bstar": 0,
        "meta_mean_motion_dot": -4.5e-07,
        "meta_mean_motion_ddot": 0,
        "tle_line1": "1 43001U 17069A   25340.36611808 -.00000045  00000+0  00000+0 0  9996",
        "tle_line2": "2 43001  56.5217  69.4444 0008989 303.7678  56.1608  1.86230764 55019"
      },
      "geometry": {
        "type": "Point",
        "coordinates": [
          -114.3679213859273,
          5.7204470135492365
        ]
      }
    },
    {
      "type": "Feature",
      "properties": {
        "norad_id": 43002,
        "name": "BEIDOU-3 M2 (C20)",
        "group": "beidou",
        "lat": -28.225830540594625,
        "lon": -89.76323506939293,
        "alt_km": 21539.74176566197,
        "timestamp": "2025-12-07T03:52:32.761849+00:00",
        "meta_object_name": "BEIDOU-3 M2 (C20)",
        "meta_object_id": "2017-069B",
        "meta_epoch": "2025-12-06T07:18:26.076672",
        "meta_mean_motion": 1.8623066,
        "meta_eccentricity": 0.00062871,
        "meta_inclination": 56.5209,
        "meta_ra_of_asc_node": 69.4828,
        "meta_arg_of_pericenter": 331.4917,
        "meta_mean_anomaly": 28.4877,
        "meta_ephemeris_type": 0,
        "meta_classification_type": "U",
        "meta_norad_cat_id": 43002,
        "meta_element_set_no": 999,
        "meta_rev_at_epoch": 5500,
        "meta_bstar": 0,
        "meta_mean_motion_dot": -4.6e-07,
        "meta_mean_motion_ddot": 0,
        "tle_line1": "1 43002U 17069B   25340.30446848 -.00000046  00000+0  00000+0 0  9992",
        "tle_line2": "2 43002  56.5209  69.4828 0006287 331.4917  28.4877  1.86230660 55004"
      },
      "geometry": {
        "type": "Point",
        "coordinates": [
          -89.76323506939293,
          -28.225830540594625
        ]
      }
    },
    {
      "type": "Feature",
      "properties": {
        "norad_id": 43107,
        "name": "BEIDOU-3 M7 (C27)",
        "group": "beidou",
        "lat": 21.560100862264406,
        "lon": -34.6437517682675,
        "alt_km": 21519.91201356894,
        "timestamp": "2025-12-07T03:52:32.761865+00:00",
        "meta_object_name": "BEIDOU-3 M7 (C27)",
        "meta_object_id": "2018-003A",
        "meta_epoch": "2025-12-05T12:15:18.978048",
        "meta_mean_motion": 1.86232243,
        "meta_eccentricity": 0.00026626,
        "meta_inclination": 54.5032,
        "meta_ra_of_asc_node": 309.0664,
        "meta_arg_of_pericenter": 69.7812,
        "meta_mean_anomaly": 290.2304,
        "meta_ephemeris_type": 0,
        "meta_classification_type": "U",
        "meta_norad_cat_id": 43107,
        "meta_element_set_no": 999,
        "meta_rev_at_epoch": 5374,
        "meta_bstar": 0,
        "meta_mean_motion_dot": -7.1e-07,
        "meta_mean_motion_ddot": 0,
        "tle_line1": "1 43107U 18003A   25339.51063632 -.00000071  00000+0  00000+0 0  9992",
        "tle_line2": "2 43107  54.5032 309.0664 0002662  69.7812 290.2304  1.86232243 53743"
      },
      "geometry": {
        "type": "Point",
        "coordinates": [
          -34.6437517682675,
          21.560100862264406
        ]
      }
    },
    {
      "type": "Feature",
      "properties": {
        "norad_id": 43108,
        "name": "BEIDOU-3 M8 (C28)",
        "group": "beidou",
        "lat": 46.91088512644222,
        "lon": -1.3275882582217429,
        "alt_km": 21533.87011622548,
        "timestamp": "2025-12-07T03:52:32.761877+00:00",
        "meta_object_name": "BEIDOU-3 M8 (C28)",
        "meta_object_id": "2018-003B",
        "meta_epoch": "2025-12-05T23:49:06.243168",
        "meta_mean_motion": 1.86230755,
        "meta_eccentricity": 0.00047661,
        "meta_inclination": 54.4957,
        "meta_ra_of_asc_node": 309.0324,
        "meta_arg_of_pericenter": 274.7089,
        "meta_mean_anomaly": 85.2198,
        "meta_ephemeris_type": 0,
        "meta_classification_type": "U",
        "meta_norad_cat_id": 43108,
        "meta_element_set_no": 999,
        "meta_rev_at_epoch": 5376,
        "meta_bstar": 0,
        "meta_mean_motion_dot": -7.1e-07,
        "meta_mean_motion_ddot": 0,
        "tle_line1": "1 43108U 18003B   25339.99243337 -.00000071  00000+0  00000+0 0  9997",
        "tle_line2": "2 43108  54.4957 309.0324 0004766 274.7089  85.2198  1.86230755 53764"
      },
      "geometry": {
        "type": "Point",
        "coordinates": [
          -1.3275882582217429,
          46.91088512644222
        ]
      }
    },
    {
      "type": "Feature",
      "properties": {
        "norad_id": 43207,
        "name": "BEIDOU-3 M4 (C22)",
        "group": "beidou",
        "lat": 41.361018812144714,
        "lon": -146.1363922259681,
        "alt_km": 21527.436397977333,
        "timestamp": "2025-12-07T03:52:32.761888+00:00",
        "meta_object_name": "BEIDOU-3 M4 (C22)",
        "meta_object_id": "2018-018A",
        "meta_epoch": "2025-12-02T03:19:43.852800",
        "meta_mean_motion": 1.86230706,
        "meta_eccentricity": 0.00040749,
        "meta_inclination": 56.4768,
        "meta_ra_of_asc_node": 69.6557,
        "meta_arg_of_pericenter": 15.1369,
        "meta_mean_anomaly": 344.8773,
        "meta_ephemeris_type": 0,
        "meta_classification_type": "U",
        "meta_norad_cat_id": 43207,
        "meta_element_set_no": 999,
        "meta_rev_at_epoch": 5307,
        "meta_bstar": 0,
        "meta_mean_motion_dot": -4.5e-07,
        "meta_mean_motion_ddot": 0,
        "tle_line1": "1 43207U 18018A   25336.13870200 -.00000045  00000+0  00000+0 0  9992",
        "tle_line2": "2 43207  56.4768  69.6557 0004074  15.1369 344.8773  1.86230706 53076"
      },
      "geometry": {
        "type": "Point",
        "coordinates": [
          -146.1363922259681,
          41.361018812144714
        ]
      }
    }
  ]
}